OBJECT_NAME,OBJECT_ID,EPOCH,MEAN_MOTION,ECCENTRICITY,INCLINATION,RA_OF_ASC_NODE,ARG_OF_PERICENTER,MEAN_ANOMALY,EPHEMERIS_TYPE,CLASSIFICATION_TYPE,NORAD_CAT_ID,ELEMENT_SET_NO,REV_AT_EPOCH,BSTAR,MEAN_MOTION_DOT,MEAN_MOTION_DDOT
SITRO-AIS 8 (ANOKHIN),2023-091AD,2026-07-17T13:53:55.965408,15.32894834,.00092402,97.5036,264.4944,359.2884,0.8343,0,U,57193,999,16910,.22439139E-3,.7057E-4,0
SITRO-AIS 7 (FARTUSHNIY),2023-091AE,2026-07-17T14:39:27.613728,15.26135701,.00108817,97.5045,261.5749,9.4311,350.7129,0,U,57194,999,16891,.18564586E-3,.4725E-4,0
AVION KALUGA 650,2023-091AF,2026-07-17T15:09:56.109024,15.20646011,.00101912,97.5070,258.0882,14.2225,345.9295,0,U,57195,999,16865,.12653598E-3,.2709E-4,0
HORS 2,2023-091AG,2026-07-17T14:18:33.730272,15.32596931,.000658,97.5069,266.0536,345.9829,14.1229,0,U,57196,999,16918,.22514362E-3,.701E-4,0
A-SEANSAT-PG1,2023-091AH,2026-07-17T14:24:48.343392,15.37933426,.00054293,97.5062,268.8507,339.3562,20.7462,0,U,57197,999,16938,.2666708E-3,.9868E-4,0
SITRO-AIS 10 (BURDAEV),2023-091AK,2026-07-17T14:37:59.733696,15.39682370,.00046718,97.5062,269.9014,330.5681,29.5301,0,U,57199,999,16944,.27616889E-3,.10824E-3,0
SITRO-AIS 9 (SHCHUKIN),2023-091AM,2026-07-17T13:56:42.770976,15.39165449,.00049395,97.5060,269.5775,331.2636,28.8337,0,U,57201,999,16942,.26157288E-3,.10074E-3,0
UTMN 2 (RS27S),2023-091AP,2026-07-17T14:53:29.903136,15.32735350,.00065044,97.5069,266.2761,340.7545,19.3451,0,U,57203,999,16920,.20584088E-3,.643E-4,0
SITRO-AIS 12 (SMIRENNIY),2023-091AQ,2026-07-17T15:08:27.860064,15.39461763,.00045009,97.5074,270.1150,323.0322,37.0612,0,U,57204,999,16945,.25901116E-3,.10072E-3,0
SITRO-AIS 11 (SHEFFER),2023-091AU,2026-07-17T15:15:24.028128,15.39907652,.00044371,97.5072,270.3861,322.3372,37.7562,0,U,57208,999,16947,.27179272E-3,.1073E-3,0
H2SAT (HEINRICH HERTZ),2023-093A,2026-07-17T09:51:13.960800,1.00271511,.00000913,0.0264,100.9600,319.8743,22.8857,0,U,57213,999,1121,0,-.8E-7,0
KUZGTU 1 (RS47S),2023-091AV,2026-07-17T15:18:39.487392,15.30501431,.00098318,97.5044,263.4396,357.3450,2.7737,0,U,57217,999,16903,.20476422E-3,.5968E-4,0
QIANKUN-1,2023-103B,2026-07-16T14:42:06.791040,16.07858994,.0035589,96.1400,240.3808,130.8922,229.5456,0,U,57422,999,17202,.75371E-5,.6165E-4,.16552E-5
FENGYUN 3F,2023-111A,2026-07-17T15:02:15.243648,14.19943661,.00012263,98.6824,268.0661,75.7614,284.3699,0,U,57490,999,15318,.21661769E-4,.3E-7,0
HJ-2F,2023-116A,2026-07-17T14:47:08.383200,15.22713367,.00064423,97.3849,203.3139,302.1251,57.9360,0,U,57519,999,16338,.1625795E-3,.3722E-4,0
XRISM,2023-137A,2026-07-17T08:20:56.538240,15.12678735,.00078619,31.0010,164.1948,267.6275,92.3463,0,U,57800,999,15743,.12172564E-3,.2282E-4,0
METEOR-M2 4,2024-039A,2026-07-17T15:23:45.143808,14.22432280,.00082581,98.7027,157.5596,82.7369,277.4747,0,U,59051,999,12359,.14058087E-4,-.12E-6,0
GRBBETA,2024-128C,2026-07-17T03:36:26.242272,15.06815785,.00367771,61.9898,111.1258,141.0827,219.2924,0,U,60237,999,11078,.12511212E-3,.1679E-4,0
TRANSPORTER-11 OBJECT A,2024-149A,2026-07-17T02:40:17.727456,15.33357294,.00049452,97.3725,277.9559,111.8968,248.2801,0,U,60468,999,10664,.14191605E-3,.4496E-4,0
WARATAH SEED-1,2024-149B,2026-07-17T11:06:44.625600,15.36652709,.00032643,97.3681,279.0799,116.5664,243.5915,0,U,60469,999,10676,.20140238E-3,.7127E-4,0
PHISAT 2,2024-149C,2026-07-17T11:59:05.907552,15.31448510,.00032736,97.3749,277.5533,120.6708,239.4857,0,U,60470,999,10663,.16873782E-3,.5047E-4,0
LEMUR-2-TOMATOKECHUP,2024-149D,2026-07-16T11:34:09.058656,15.36597838,.0003348,97.3796,279.6140,120.3105,239.8471,0,U,60471,999,10666,.16419E-3,.5784E-4,0
CONNECTA IOT-1,2024-149E,2026-07-17T04:11:16.498464,15.23750716,.00029496,97.3749,273.9619,138.1796,221.9667,0,U,60472,999,10636,.8987796E-4,.209E-4,0
LOPEN,2024-149F,2026-07-17T11:20:19.972896,15.40504380,.00029284,97.3772,282.0938,130.0839,230.0664,0,U,60473,999,10692,.21010051E-3,.8438E-4,0
ROCK,2024-149G,2026-07-16T17:52:20.568000,15.40480155,.00032121,97.3770,281.3732,129.2822,230.8709,0,U,60474,999,10681,.22697877E-3,.9117E-4,0
CONNECTA IOT-3,2024-149H,2026-07-17T10:59:56.979168,15.23765548,.00041182,97.3723,273.9847,137.7899,222.3656,0,U,60475,999,10641,.91149408E-4,.2122E-4,0
QUBE,2024-149J,2026-07-17T11:48:35.735328,15.48572741,.00033573,97.3771,285.5398,125.1746,234.9820,0,U,60476,999,10715,.26133966E-3,.13846E-3,0
WREN-1,2024-149L,2026-07-16T18:54:35.197632,15.42666517,.00054342,97.3763,282.2343,146.0317,214.1279,0,U,60478,999,10688,.29337218E-3,.1271E-3,0
TOMORROW-S1,2024-149M,2026-07-16T18:31:54.494400,15.33106176,.00041368,97.3744,278.1578,127.5691,232.5928,0,U,60479,999,10662,.13256178E-3,.4161E-4,0
